SENTINEL-6              
1 46984U 20086A   24080.22507175 -.00000053  00000+0  34538-4 0  9995
2 46984  66.0433  36.0417 0007882 271.3026  88.7086 12.80929185155432
